[{"OBJECT_NAME":"SWISSCUBE","OBJECT_ID":"2009-051B","EPOCH":"2026-03-09T16:23:13.335936","MEAN_MOTION":14.62259637,"ECCENTRICITY":0.00070545,"INCLINATION":98.4094,"RA_OF_ASC_NODE":334.8256,"ARG_OF_PERICENTER":152.7663,"MEAN_ANOMALY":207.3909,"EPHEMERIS_TYPE":0,"CLASSIFICATION_TYPE":"U","NORAD_CAT_ID":35932,"ELEMENT_SET_NO":999,"REV_AT_EPOCH":87461,"BSTAR":0.00032657986,"MEAN_MOTION_DOT":1.598e-5,"MEAN_MOTION_DDOT":0},{"OBJECT_NAME":"CZ-6A DEB","OBJECT_ID":"2022-151QG","EPOCH":"2026-03-09T16:18:22.929984","MEAN_MOTION":14.67394959,"ECCENTRICITY":0.00710131,"INCLINATION":98.6362,"RA_OF_ASC_NODE":127.2188,"ARG_OF_PERICENTER":238.2574,"MEAN_ANOMALY":121.1695,"EPHEMERIS_TYPE":0,"CLASSIFICATION_TYPE":"U","NORAD_CAT_ID":54895,"ELEMENT_SET_NO":999,"REV_AT_EPOCH":17283,"BSTAR":0.0024591402,"MEAN_MOTION_DOT":0.00014408,"MEAN_MOTION_DDOT":0}]
